{"type": "FeatureCollection", "features": [{"type": "Feature", "properties": {"nombre": "11 de Septiembre"}, "geometry": {"type": "Polygon", "coordinates": [[[-58.613117, -34.567764], [-58.613976, -34.56712], [-58.614777, -34.566512], [-58.614848, -34.566457], [-58.615356, -34.566067], [-58.615715, -34.5658], [-58.615978, -34.565601], [-58.616581, -34.565151], [-58.617199, -34.56469], [-58.617859, -34.564201], [-58.617953, -34.564127], [-58.618656, -34.563602], [-58.619713, -34.562763], [-58.619949, -34.562675], [-58.621056, -34.561817], [-58.621387, -34.561562], [-58.622282, -34.560855], [-58.623222, -34.560169], [-58.624193, -34.559476], [-58.625097, -34.558797], [-58.625159, -34.558761], [-58.62531, -34.558634], [-58.625512, -34.558494], [-58.627421, -34.557039], [-58.627983, -34.559948], [-58.628378, -34.562814], [-58.626049, -34.562823], [-58.62581, -34.562832], [-58.624901, -34.563625], [-58.62429, -34.564102], [-58.623489, -34.564693], [-58.622986, -34.56506], [-58.62278, -34.565208], [-58.622112, -34.565693], [-58.621445, -34.566212], [-58.620689, -34.566792], [-58.620056, -34.567272], [-58.619427, -34.567749], [-58.618839, -34.568195], [-58.618237, -34.568657], [-58.617641, -34.569111], [-58.617031, -34.569575], [-58.616834, -34.569725], [-58.616413, -34.570045], [-58.615971, -34.570381], [-58.615162, -34.569641], [-58.614491, -34.569019], [-58.613804, -34.568398], [-58.613117, -34.567764]]]}}, {"type": "Feature", "properties": {"nombre": "Caseros"}, "geometry": {"type": "Polygon", "coordinates": [[[-58.575124, -34.589264], [-58.57762, -34.589171], [-58.578479, -34.589152], [-58.57779, -34.589625], [-58.576945, -34.590262], [-58.575566, -34.591234], [-58.575218, -34.591542], [-58.575108, -34.591606], [-58.574742, -34.591886], [-58.573746, -34.592696], [-58.573148, -34.593157], [-58.572946, -34.593291], [-58.572495, -34.59365], [-58.571775, -34.594164], [-58.572713, -34.595041], [-58.573376, -34.595614], [-58.573864, -34.596068], [-58.574643, -34.596757], [-58.57541, -34.597459], [-58.575958, -34.597078], [-58.576795, -34.596419], [-58.577389, -34.595957], [-58.577567, -34.595827], [-58.578352, -34.596452], [-58.57914, -34.597124], [-58.579958, -34.597727], [-58.58299, -34.595386], [-58.583515, -34.596367], [-58.584384, -34.597511], [-58.584523, -34.597934], [-58.584402, -34.598111], [-58.584478, -34.598242], [-58.584726, -34.598237], [-58.585764, -34.600179], [-58.586183, -34.600899], [-58.586575, -34.601413], [-58.587, -34.602233], [-58.587684, -34.603543], [-58.58451, -34.604765], [-58.580068, -34.605313], [-58.578308, -34.605418], [-58.58013, -34.605737], [-58.58109, -34.605952], [-58.581998, -34.606245], [-58.583678, -34.607027], [-58.583851, -34.607098], [-58.58507, -34.60798], [-58.586618, -34.609005], [-58.585989, -34.610032], [-58.585199, -34.61106], [-58.585109, -34.611129], [-58.584329, -34.612249], [-58.584171, -34.612479], [-58.583565, -34.613282], [-58.582777, -34.614355], [-58.582707, -34.614453], [-58.582546, -34.61464], [-58.58199, -34.615403], [-58.581864, -34.615569], [-58.581209, -34.616543], [-58.581114, -34.616664], [-58.580893, -34.616939], [-58.580485, -34.617565], [-58.58031, -34.617736], [-58.57964, -34.618628], [-58.579493, -34.618863], [-58.578865, -34.619752], [-58.578663, -34.620001], [-58.578052, -34.620813], [-58.577845, -34.621107], [-58.577321, -34.621846], [-58.577017, -34.622277], [-58.57649, -34.622954], [-58.575715, -34.624018], [-58.574874, -34.625128], [-58.574111, -34.626177], [-58.573317, -34.627268], [-58.572497, -34.628389], [-58.572267, -34.628728], [-58.571445, -34.628301], [-58.571167, -34.628164], [-58.570557, -34.627867], [-58.569716, -34.627463], [-58.569176, -34.627199], [-58.568206, -34.62665], [-58.567967, -34.626485], [-58.566945, -34.625973], [-58.566738, -34.625877], [-58.566097, -34.626354], [-58.565434, -34.626946], [-58.565211, -34.626873], [-58.564335, -34.626508], [-58.563255, -34.625976], [-58.561695, -34.625275], [-58.560118, -34.624709], [-58.560014, -34.624662], [-58.558439, -34.623926], [-58.558014, -34.623747], [-58.556788, -34.623192], [-58.556592, -34.623102], [-58.555764, -34.622798], [-58.555402, -34.622665], [-58.554542, -34.622281], [-58.554368, -34.622217], [-58.553702, -34.621971], [-58.553533, -34.621913], [-58.552902, -34.621703], [-58.552795, -34.621661], [-58.552186, -34.621411], [-58.551829, -34.621278], [-58.551406, -34.621101], [-58.55098, -34.62091], [-58.550085, -34.620543], [-58.549313, -34.620229], [-58.548458, -34.619833], [-58.547455, -34.61946], [-58.547048, -34.619316], [-58.546169, -34.618985], [-58.544921, -34.618516], [-58.5436, -34.618026], [-58.54289, -34.617732], [-58.542321, -34.617535], [-58.541397, -34.617172], [-58.54018, -34.616725], [-58.538971, -34.616216], [-58.539917, -34.615565], [-58.540762, -34.614808], [-58.541612, -34.614088], [-58.54239, -34.613401], [-58.543246, -34.612608], [-58.543905, -34.612073], [-58.544756, -34.61172], [-58.545876, -34.611256], [-58.546854, -34.610774], [-58.547633, -34.610371], [-58.548779, -34.6099], [-58.549918, -34.609336], [-58.551081, -34.608872], [-58.55232, -34.608328], [-58.553516, -34.607783], [-58.554636, -34.607275], [-58.555799, -34.606748], [-58.557267, -34.606097], [-58.557192, -34.605203], [-58.557205, -34.60417], [-58.557133, -34.603519], [-58.557056, -34.602497], [-58.556992, -34.601465], [-58.556913, -34.600402], [-58.556858, -34.599369], [-58.555849, -34.59941], [-58.554853, -34.599447], [-58.553863, -34.599472], [-58.55354, -34.599499], [-58.553852, -34.599287], [-58.554141, -34.599077], [-58.554676, -34.598683], [-58.555682, -34.597947], [-58.557079, -34.596905], [-58.557162, -34.596835], [-58.556888, -34.596638], [-58.55664, -34.596474], [-58.555553, -34.595768], [-58.55421, -34.594894], [-58.552996, -34.594097], [-58.552802, -34.59401], [-58.55154, -34.593189], [-58.551307, -34.59304], [-58.551055, -34.592945], [-58.551177, -34.592926], [-58.552657, -34.5927], [-58.554148, -34.592475], [-58.555658, -34.592294], [-58.557124, -34.592112], [-58.558642, -34.591897], [-58.560016, -34.591696], [-58.560415, -34.591508], [-58.562234, -34.591327], [-58.562434, -34.591283], [-58.562655, -34.591092], [-58.564608, -34.590831], [-58.565616, -34.590668], [-58.567574, -34.590369], [-58.568921, -34.590166], [-58.570809, -34.589843], [-58.571336, -34.589742], [-58.572388, -34.5896], [-58.574798, -34.589256], [-58.575124, -34.589264]]]}}, {"type": "Feature", "properties": {"nombre": "Churruca"}, "geometry": {"type": "Polygon", "coordinates": [[[-58.626032, -34.553683], [-58.626508, -34.55433], [-58.626973, -34.555114], [-58.627232, -34.556061], [-58.627421, -34.557039], [-58.625512, -34.558494], [-58.62531, -34.558634], [-58.625159, -34.558761], [-58.625097, -34.558797], [-58.624193, -34.559476], [-58.623222, -34.560169], [-58.622282, -34.560855], [-58.621387, -34.561562], [-58.621056, -34.561817], [-58.619949, -34.562675], [-58.619713, -34.562763], [-58.617463, -34.562737], [-58.616996, -34.562737], [-58.615311, -34.562738], [-58.613496, -34.562747], [-58.614785, -34.561736], [-58.615697, -34.561039], [-58.616268, -34.56059], [-58.617529, -34.55965], [-58.618504, -34.558964], [-58.619417, -34.558274], [-58.620323, -34.55757], [-58.621236, -34.556857], [-58.622204, -34.556159], [-58.623422, -34.555192], [-58.623748, -34.554986], [-58.626032, -34.553683]]]}}, {"type": "Feature", "properties": {"nombre": "Ciudad Jardín"}, "geometry": {"type": "Polygon", "coordinates": [[[-58.578271, -34.605431], [-58.580031, -34.605326], [-58.584473, -34.604778], [-58.587647, -34.603556], [-58.586963, -34.602246], [-58.586538, -34.601426], [-58.586146, -34.600912], [-58.585727, -34.600192], [-58.584689, -34.59825], [-58.584441, -34.598255], [-58.584365, -34.598124], [-58.584486, -34.597947], [-58.584347, -34.597524], [-58.583478, -34.59638], [-58.582953, -34.595399], [-58.584191, -34.594473], [-58.585056, -34.593832], [-58.585853, -34.59322], [-58.586718, -34.592574], [-58.58726, -34.592162], [-58.587938, -34.591661], [-58.588515, -34.59123], [-58.589321, -34.590544], [-58.590302, -34.589806], [-58.591799, -34.5887], [-58.594147, -34.588538], [-58.594383, -34.588535], [-58.596784, -34.588451], [-58.598053, -34.588399], [-58.599127, -34.588371], [-58.600431, -34.588314], [-58.601787, -34.588211], [-58.603754, -34.588139], [-58.604157, -34.588103], [-58.607051, -34.588108], [-58.607336, -34.587966], [-58.607689, -34.58859], [-58.603594, -34.588658], [-58.602623, -34.589512], [-58.602172, -34.590128], [-58.601613, -34.590503], [-58.600483, -34.591483], [-58.599988, -34.591874], [-58.599595, -34.592271], [-58.599236, -34.592718], [-58.598888, -34.593182], [-58.597956, -34.594774], [-58.597314, -34.595767], [-58.596457, -34.597194], [-58.59561, -34.598657], [-58.596611, -34.600316], [-58.598347, -34.603302], [-58.596981, -34.604359], [-58.595748, -34.605502], [-58.594431, -34.606607], [-58.593496, -34.607419], [-58.593184, -34.607733], [-58.592869, -34.608022], [-58.591849, -34.607475], [-58.591511, -34.607325], [-58.590891, -34.607022], [-58.590399, -34.606782], [-58.590097, -34.606616], [-58.589844, -34.606517], [-58.588821, -34.606052], [-58.588081, -34.607047], [-58.587375, -34.608028], [-58.586841, -34.608745], [-58.586581, -34.609018], [-58.585033, -34.607993], [-58.583814, -34.607111], [-58.583641, -34.60704], [-58.581961, -34.606258], [-58.581053, -34.605965], [-58.580093, -34.60575], [-58.578271, -34.605431]]]}}, {"type": "Feature", "properties": {"nombre": "El Libertador"}, "geometry": {"type": "Polygon", "coordinates": [[[-58.607712, -34.555393], [-58.60865, -34.554691], [-58.609573, -34.553989], [-58.610512, -34.55328], [-58.611389, -34.552627], [-58.612787, -34.551586], [-58.62146, -34.551731], [-58.622246, -34.551826], [-58.623318, -34.552026], [-58.62426, -34.55246], [-58.625365, -34.553104], [-58.626032, -34.553683], [-58.623748, -34.554986], [-58.623422, -34.555192], [-58.622204, -34.556159], [-58.621236, -34.556857], [-58.620323, -34.55757], [-58.619417, -34.558274], [-58.618504, -34.558964], [-58.617529, -34.55965], [-58.616268, -34.56059], [-58.615697, -34.561039], [-58.614785, -34.561736], [-58.613496, -34.562747], [-58.612855, -34.56273], [-58.611475, -34.562721], [-58.610062, -34.562713], [-58.609018, -34.562722], [-58.609248, -34.561723], [-58.608433, -34.561712], [-58.608472, -34.560653], [-58.608443, -34.559985], [-58.608433, -34.559349], [-58.608463, -34.558273], [-58.608455, -34.557497], [-58.608434, -34.556746], [-58.608456, -34.556039], [-58.607712, -34.555393]]]}}, {"type": "Feature", "properties": {"nombre": "José Ingenieros"}, "geometry": {"type": "Polygon", "coordinates": [[[-58.532141, -34.615138], [-58.532572, -34.614814], [-58.532832, -34.61461], [-58.533462, -34.614123], [-58.534007, -34.613721], [-58.534853, -34.613117], [-58.535699, -34.612483], [-58.539362, -34.609736], [-58.53998, -34.609566], [-58.543975, -34.612068], [-58.543316, -34.612603], [-58.54246, -34.613396], [-58.541682, -34.614083], [-58.540832, -34.614803], [-58.539987, -34.61556], [-58.539041, -34.616211], [-58.54025, -34.61672], [-58.541467, -34.617167], [-58.542391, -34.61753], [-58.54296, -34.617727], [-58.54367, -34.618021], [-58.543231, -34.618813], [-58.54281, -34.619568], [-58.542377, -34.620401], [-58.54201, -34.621081], [-58.540675, -34.620382], [-58.539481, -34.619814], [-58.539893, -34.619449], [-58.539433, -34.618742], [-58.538494, -34.618949], [-58.537651, -34.619573], [-58.536663, -34.62021], [-58.536409, -34.621553], [-58.535786, -34.622087], [-58.536106, -34.622369], [-58.535545, -34.622837], [-58.534908, -34.623314], [-58.534113, -34.623894], [-58.53333, -34.624482], [-58.532651, -34.623909], [-58.53216, -34.623499], [-58.531726, -34.623085], [-58.531184, -34.622665], [-58.531212, -34.622097], [-58.531246, -34.621382], [-58.531261, -34.620653], [-58.531251, -34.620077], [-58.531324, -34.619179], [-58.53135, -34.61883], [-58.531402, -34.618113], [-58.531401, -34.617791], [-58.5314, -34.61761], [-58.53141, -34.616956], [-58.531457, -34.615904], [-58.531456, -34.615688], [-58.532141, -34.615138]]]}}, {"type": "Feature", "properties": {"nombre": "Loma Hermosa"}, "geometry": {"type": "Polygon", "coordinates": [[[-58.607712, -34.555393], [-58.608456, -34.556039], [-58.608434, -34.556746], [-58.608455, -34.557497], [-58.608463, -34.558273], [-58.608433, -34.559349], [-58.608443, -34.559985], [-58.608472, -34.560653], [-58.608433, -34.561712], [-58.609248, -34.561723], [-58.609018, -34.562722], [-58.610062, -34.562713], [-58.611475, -34.562721], [-58.612855, -34.56273], [-58.613496, -34.562747], [-58.615311, -34.562738], [-58.616996, -34.562737], [-58.617463, -34.562737], [-58.619713, -34.562763], [-58.618656, -34.563602], [-58.617953, -34.564127], [-58.617859, -34.564201], [-58.617199, -34.56469], [-58.616581, -34.565151], [-58.615978, -34.565601], [-58.615715, -34.5658], [-58.615356, -34.566067], [-58.614848, -34.566457], [-58.614777, -34.566512], [-58.613976, -34.56712], [-58.613117, -34.567764], [-58.612221, -34.568436], [-58.611389, -34.569065], [-58.610237, -34.569927], [-58.609646, -34.570381], [-58.608788, -34.57103], [-58.608505, -34.571239], [-58.607895, -34.571693], [-58.606983, -34.572369], [-58.60614, -34.572998], [-58.605263, -34.573654], [-58.60442, -34.574303], [-58.603344, -34.575123], [-58.602692, -34.575611], [-58.601814, -34.576263], [-58.600967, -34.576904], [-58.600323, -34.577377], [-58.600231, -34.577435], [-58.59919, -34.578209], [-58.598087, -34.579111], [-58.597465, -34.579563], [-58.596444, -34.580401], [-58.596337, -34.580471], [-58.595735, -34.580929], [-58.594615, -34.581744], [-58.593825, -34.582384], [-58.592789, -34.581457], [-58.591851, -34.58062], [-58.590882, -34.579754], [-58.591694, -34.579151], [-58.592607, -34.578491], [-58.593427, -34.577858], [-58.594327, -34.577187], [-58.595196, -34.576542], [-58.595945, -34.575987], [-58.596848, -34.575315], [-58.595997, -34.574284], [-58.59531, -34.573681], [-58.595161, -34.573551], [-58.594635, -34.573086], [-58.594414, -34.572903], [-58.593729, -34.572263], [-58.593597, -34.57214], [-58.592697, -34.571342], [-58.591985, -34.570633], [-58.591865, -34.570508], [-58.591057, -34.569756], [-58.590333, -34.569095], [-58.590662, -34.568843], [-58.592063, -34.56769], [-58.592312, -34.567489], [-58.592755, -34.567134], [-58.593357, -34.566658], [-58.593999, -34.56616], [-58.594433, -34.565825], [-58.594643, -34.565656], [-58.594966, -34.565402], [-58.595267, -34.565178], [-58.595468, -34.565028], [-58.595826, -34.564748], [-58.596413, -34.564284], [-58.596539, -34.564181], [-58.597128, -34.563693], [-58.597982, -34.563032], [-58.598172, -34.562887], [-58.598465, -34.562653], [-58.5989, -34.562312], [-58.59916, -34.562098], [-58.600223, -34.561254], [-58.600535, -34.561], [-58.601124, -34.560534], [-58.601366, -34.560341], [-58.602015, -34.559827], [-58.602219, -34.559658], [-58.602882, -34.559082], [-58.603127, -34.558888], [-58.60376, -34.558399], [-58.604545, -34.557789], [-58.605337, -34.557186], [-58.606056, -34.556637], [-58.606819, -34.556057], [-58.607712, -34.555393]]]}}, {"type": "Feature", "properties": {"nombre": "Martín Coronado"}, "geometry": {"type": "Polygon", "coordinates": [[[-58.5938573, -34.5823132], [-58.5946473, -34.5816732], [-58.5957663, -34.5808582], [-58.5963683, -34.5804002], [-58.5964763, -34.5803302], [-58.5974963, -34.5794922], [-58.5981183, -34.5790402], [-58.5992223, -34.5781382], [-58.5998003, -34.5788742], [-58.6003803, -34.5796182], [-58.6010523, -34.5804892], [-58.6016883, -34.5812832], [-58.6023383, -34.5820822], [-58.6029523, -34.5828052], [-58.6035923, -34.5835522], [-58.6042883, -34.5844092], [-58.6051083, -34.5853182], [-58.6057103, -34.5859912], [-58.6060223, -34.5864202], [-58.6060763, -34.5864882], [-58.6061943, -34.5866172], [-58.6073683, -34.5878952], [-58.6070823, -34.5880372], [-58.6041883, -34.5880322], [-58.6037863, -34.5880682], [-58.6018183, -34.5881402], [-58.6004623, -34.5882432], [-58.5991583, -34.5883002], [-58.5980843, -34.5883282], [-58.5968163, -34.5883802], [-58.5944153, -34.5884642], [-58.5941793, -34.5884672], [-58.5918313, -34.5886292], [-58.5903353, -34.5897352], [-58.5893533, -34.5904732], [-58.5885473, -34.5911592], [-58.5879713, -34.5915902], [-58.5872932, -34.5920912], [-58.5867512, -34.5925032], [-58.5858852, -34.5931492], [-58.5850892, -34.5937612], [-58.5842232, -34.5944022], [-58.5829852, -34.5953282], [-58.5799532, -34.5976692], [-58.5791352, -34.5970662], [-58.5783472, -34.5963942], [-58.5775632, -34.5957692], [-58.5773852, -34.5958992], [-58.5767912, -34.5963612], [-58.5759532, -34.5970202], [-58.5754052, -34.5974012], [-58.5746392, -34.5966992], [-58.5738592, -34.5960102], [-58.5733712, -34.5955562], [-58.5727092, -34.5949832], [-58.5717712, -34.5941062], [-58.5724912, -34.5935922], [-58.5729412, -34.5932332], [-58.5731432, -34.5930992], [-58.5737412, -34.5926382], [-58.5747372, -34.5918282], [-58.5751032, -34.5915482], [-58.5752132, -34.5914842], [-58.5755612, -34.5911762], [-58.5769412, -34.5902042], [-58.5777852, -34.5895672], [-58.5784672, -34.5890982], [-58.5787752, -34.5888432], [-58.5796052, -34.5882012], [-58.5801772, -34.5877652], [-58.5807812, -34.5873142], [-58.5814072, -34.5868522], [-58.5819852, -34.5864162], [-58.5825952, -34.5859502], [-58.5832092, -34.5854882], [-58.5838312, -34.5849972], [-58.5844532, -34.5845102], [-58.5850132, -34.5840792], [-58.5858832, -34.5833932], [-58.5867032, -34.5828072], [-58.5875992, -34.5821662], [-58.5885333, -34.5815062], [-58.5891033, -34.5810452], [-58.5893093, -34.5809002], [-58.5897213, -34.5805792], [-58.5900913, -34.5802992], [-58.5903393, -34.5801082], [-58.5909153, -34.5796832], [-58.5918833, -34.5805492], [-58.5928213, -34.5813862], [-58.5938573, -34.5823132]]]}}, {"type": "Feature", "properties": {"nombre": "Pablo Podestá"}, "geometry": {"type": "Polygon", "coordinates": [[[-58.610329, -34.571014], [-58.611019, -34.571655], [-58.611782, -34.57235], [-58.612503, -34.572994], [-58.613091, -34.573517], [-58.613777, -34.574139], [-58.614433, -34.574726], [-58.615185, -34.575329], [-58.616619, -34.576328], [-58.624249, -34.581492], [-58.621152, -34.584074], [-58.620179, -34.584933], [-58.619681, -34.585401], [-58.618634, -34.586327], [-58.617466, -34.587273], [-58.616782, -34.587764], [-58.612926, -34.590949], [-58.611912, -34.59156], [-58.611122, -34.592167], [-58.610035, -34.591179], [-58.60966, -34.590773], [-58.607689, -34.58859], [-58.607336, -34.587966], [-58.606163, -34.586688], [-58.606045, -34.586559], [-58.605991, -34.586491], [-58.605678, -34.586062], [-58.605077, -34.585389], [-58.604256, -34.58448], [-58.603561, -34.583623], [-58.60292, -34.582876], [-58.602306, -34.582153], [-58.601656, -34.581354], [-58.601021, -34.58056], [-58.600349, -34.579689], [-58.599769, -34.578945], [-58.59919, -34.578209], [-58.600231, -34.577435], [-58.600323, -34.577377], [-58.600967, -34.576904], [-58.601814, -34.576263], [-58.602692, -34.575611], [-58.603344, -34.575123], [-58.60442, -34.574303], [-58.605263, -34.573654], [-58.60614, -34.572998], [-58.606983, -34.572369], [-58.607895, -34.571693], [-58.608505, -34.571239], [-58.608788, -34.57103], [-58.609646, -34.570381], [-58.610329, -34.571014]]]}}, {"type": "Feature", "properties": {"nombre": "Remedios de Escalada"}, "geometry": {"type": "Polygon", "coordinates": [[[-58.642193, -34.567242], [-58.639968, -34.56862], [-58.639236, -34.568817], [-58.638287, -34.569622], [-58.637308, -34.570438], [-58.636388, -34.571208], [-58.635609, -34.571877], [-58.634852, -34.572503], [-58.634083, -34.573138], [-58.632629, -34.574359], [-58.631495, -34.575348], [-58.630391, -34.576324], [-58.628916, -34.577524], [-58.628392, -34.577984], [-58.627933, -34.578382], [-58.624249, -34.581492], [-58.616619, -34.576328], [-58.615185, -34.575329], [-58.614433, -34.574726], [-58.613777, -34.574139], [-58.613091, -34.573517], [-58.612503, -34.572994], [-58.611782, -34.57235], [-58.611019, -34.571655], [-58.610329, -34.571014], [-58.609646, -34.570381], [-58.610237, -34.569927], [-58.611389, -34.569065], [-58.612221, -34.568436], [-58.613117, -34.567764], [-58.613804, -34.568398], [-58.614491, -34.569019], [-58.615162, -34.569641], [-58.615971, -34.570381], [-58.616413, -34.570045], [-58.616834, -34.569725], [-58.617031, -34.569575], [-58.617641, -34.569111], [-58.618237, -34.568657], [-58.618839, -34.568195], [-58.619427, -34.567749], [-58.620056, -34.567272], [-58.620689, -34.566792], [-58.621445, -34.566212], [-58.622112, -34.565693], [-58.62278, -34.565208], [-58.622986, -34.56506], [-58.623489, -34.564693], [-58.62429, -34.564102], [-58.624901, -34.563625], [-58.62581, -34.562832], [-58.626049, -34.562823], [-58.628378, -34.562814], [-58.628796, -34.562836], [-58.641235, -34.56295], [-58.642799, -34.562771], [-58.644966, -34.561989], [-58.645406, -34.562459], [-58.645811, -34.562793], [-58.646264, -34.563006], [-58.646847, -34.563193], [-58.647786, -34.56342], [-58.648629, -34.56354], [-58.642193, -34.567242]]]}}, {"type": "Feature", "properties": {"nombre": "Santos Lugares"}, "geometry": {"type": "Polygon", "coordinates": [[[-58.551334, -34.593035], [-58.551567, -34.593184], [-58.552829, -34.594005], [-58.553023, -34.594092], [-58.554237, -34.594889], [-58.55558, -34.595763], [-58.556667, -34.596469], [-58.556915, -34.596633], [-58.557189, -34.59683], [-58.557106, -34.5969], [-58.555709, -34.597942], [-58.554703, -34.598678], [-58.554168, -34.599072], [-58.553879, -34.599282], [-58.553567, -34.599494], [-58.55389, -34.599467], [-58.55488, -34.599442], [-58.555876, -34.599405], [-58.556885, -34.599364], [-58.55694, -34.600397], [-58.557019, -34.60146], [-58.557083, -34.602492], [-58.55716, -34.603514], [-58.557232, -34.604165], [-58.557219, -34.605198], [-58.557294, -34.606092], [-58.555826, -34.606743], [-58.554663, -34.60727], [-58.553543, -34.607778], [-58.552347, -34.608323], [-58.551108, -34.608867], [-58.549945, -34.609331], [-58.548806, -34.609895], [-58.54766, -34.610366], [-58.546881, -34.610769], [-58.545903, -34.611251], [-58.544783, -34.611715], [-58.543932, -34.612068], [-58.539937, -34.609566], [-58.535264, -34.606516], [-58.534895, -34.60631], [-58.533178, -34.605182], [-58.531354, -34.604099], [-58.530637, -34.60366], [-58.52993, -34.603427], [-58.52943, -34.603569], [-58.529322, -34.603167], [-58.530755, -34.603112], [-58.532027, -34.603172], [-58.53335, -34.603279], [-58.534777, -34.603292], [-58.536229, -34.603315], [-58.53696, -34.602422], [-58.537642, -34.601688], [-58.538313, -34.600976], [-58.538974, -34.600269], [-58.539945, -34.599293], [-58.540922, -34.598249], [-58.541881, -34.5972], [-58.541091, -34.596662], [-58.540222, -34.596086], [-58.539363, -34.595529], [-58.538781, -34.595161], [-58.53835, -34.594886], [-58.539578, -34.594738], [-58.54139, -34.594468], [-58.542791, -34.594258], [-58.543296, -34.594173], [-58.544271, -34.594009], [-58.545259, -34.593875], [-58.545665, -34.593814], [-58.5473, -34.593552], [-58.551082, -34.59294], [-58.551334, -34.593035]]]}}, {"type": "Feature", "properties": {"nombre": "Villa Bosch"}, "geometry": {"type": "Polygon", "coordinates": [[[-58.590333, -34.569095], [-58.591057, -34.569756], [-58.591865, -34.570508], [-58.591985, -34.570633], [-58.592697, -34.571342], [-58.593597, -34.57214], [-58.593729, -34.572263], [-58.594414, -34.572903], [-58.594635, -34.573086], [-58.595161, -34.573551], [-58.59531, -34.573681], [-58.595997, -34.574284], [-58.596848, -34.575315], [-58.595945, -34.575987], [-58.595196, -34.576542], [-58.594327, -34.577187], [-58.593427, -34.577858], [-58.592607, -34.578491], [-58.591694, -34.579151], [-58.590882, -34.579754], [-58.590306, -34.580179], [-58.590058, -34.58037], [-58.589688, -34.58065], [-58.589277, -34.580971], [-58.58907, -34.581116], [-58.588501, -34.581577], [-58.587567, -34.582237], [-58.58667, -34.582878], [-58.585851, -34.583464], [-58.58498, -34.58415], [-58.58442, -34.584581], [-58.583799, -34.585068], [-58.583177, -34.585559], [-58.582562, -34.586021], [-58.581951, -34.586482], [-58.581375, -34.586923], [-58.580748, -34.587385], [-58.580144, -34.587836], [-58.579572, -34.588272], [-58.578743, -34.588914], [-58.578435, -34.589169], [-58.577583, -34.589184], [-58.575087, -34.589277], [-58.574761, -34.589269], [-58.572351, -34.589613], [-58.571299, -34.589755], [-58.570772, -34.589856], [-58.568884, -34.590179], [-58.567537, -34.590382], [-58.565579, -34.590681], [-58.564571, -34.590844], [-58.562618, -34.591105], [-58.563061, -34.590654], [-58.56375, -34.59006], [-58.564136, -34.589727], [-58.564199, -34.58967], [-58.565232, -34.588852], [-58.566363, -34.587942], [-58.56736, -34.587164], [-58.568113, -34.586565], [-58.569033, -34.585843], [-58.569875, -34.585184], [-58.570617, -34.584562], [-58.571448, -34.583912], [-58.572279, -34.583281], [-58.573049, -34.582628], [-58.573656, -34.582178], [-58.573913, -34.581988], [-58.574255, -34.581725], [-58.574741, -34.581347], [-58.574835, -34.581276], [-58.575463, -34.580784], [-58.575597, -34.58068], [-58.576038, -34.580327], [-58.57644, -34.580012], [-58.576677, -34.579819], [-58.577193, -34.57939], [-58.578013, -34.578795], [-58.578827, -34.578165], [-58.578866, -34.578109], [-58.579468, -34.577637], [-58.579664, -34.577451], [-58.580086, -34.577127], [-58.580517, -34.576792], [-58.580957, -34.576414], [-58.581281, -34.576129], [-58.581804, -34.575735], [-58.582128, -34.575491], [-58.582376, -34.575294], [-58.582963, -34.574822], [-58.583577, -34.574345], [-58.583767, -34.574199], [-58.5841, -34.573932], [-58.584581, -34.573547], [-58.586154, -34.572293], [-58.586661, -34.57192], [-58.587763, -34.571094], [-58.589024, -34.570109], [-58.590333, -34.569095]]]}}, {"type": "Feature", "properties": {"nombre": "Villa Raffo"}, "geometry": {"type": "Polygon", "coordinates": [[[-58.529495, -34.603605], [-58.529995, -34.603463], [-58.530702, -34.603696], [-58.531419, -34.604135], [-58.533243, -34.605218], [-58.53496, -34.606346], [-58.535329, -34.606552], [-58.540002, -34.609602], [-58.539384, -34.609772], [-58.535721, -34.612519], [-58.534875, -34.613153], [-58.534029, -34.613757], [-58.533484, -34.614159], [-58.532854, -34.614646], [-58.532594, -34.61485], [-58.532163, -34.615174], [-58.531478, -34.615724], [-58.531135, -34.614712], [-58.530751, -34.613788], [-58.530454, -34.613074], [-58.529825, -34.61205], [-58.529466, -34.611317], [-58.529323, -34.611001], [-58.528781, -34.609858], [-58.528184, -34.608622], [-58.527533, -34.607102], [-58.526916, -34.605556], [-58.526499, -34.604604], [-58.525768, -34.60334], [-58.529387, -34.603203], [-58.529495, -34.603605]]]}}, {"type": "Feature", "properties": {"nombre": "Sáenz Peña"}, "geometry": {"type": "Polygon", "coordinates": [[[-58.540965, -34.598267], [-58.539988, -34.599311], [-58.539017, -34.600287], [-58.538356, -34.600994], [-58.537685, -34.601706], [-58.537003, -34.60244], [-58.536272, -34.603333], [-58.53482, -34.60331], [-58.533393, -34.603297], [-58.53207, -34.60319], [-58.530798, -34.60313], [-58.529365, -34.603185], [-58.525746, -34.603322], [-58.52549, -34.602859], [-58.525473, -34.60279], [-58.525117, -34.602044], [-58.524398, -34.600697], [-58.524048, -34.599991], [-58.52362, -34.599335], [-58.523192, -34.598081], [-58.523196, -34.597667], [-58.52808, -34.596476], [-58.529898, -34.596182], [-58.530795, -34.596021], [-58.532146, -34.595837], [-58.532267, -34.595823], [-58.533274, -34.595671], [-58.534154, -34.595528], [-58.534548, -34.595473], [-58.536292, -34.595213], [-58.537718, -34.595004], [-58.538393, -34.594904], [-58.538824, -34.595179], [-58.539406, -34.595547], [-58.540265, -34.596104], [-58.541134, -34.59668], [-58.541924, -34.597218], [-58.540965, -34.598267]]]}}, {"type": "Feature", "properties": {"nombre": "Ciudadela"}, "geometry": {"type": "Polygon", "coordinates": [[[-58.554438, -34.622215], [-58.554612, -34.622279], [-58.555472, -34.622663], [-58.555834, -34.622796], [-58.556662, -34.6231], [-58.556858, -34.62319], [-58.558084, -34.623745], [-58.558509, -34.623924], [-58.560084, -34.62466], [-58.560188, -34.624707], [-58.561765, -34.625273], [-58.563325, -34.625974], [-58.564405, -34.626506], [-58.565281, -34.626871], [-58.565504, -34.626944], [-58.564887, -34.627417], [-58.564204, -34.628023], [-58.563996, -34.628145], [-58.56344, -34.628607], [-58.563253, -34.628749], [-58.562849, -34.629066], [-58.562531, -34.629318], [-58.562283, -34.629524], [-58.561917, -34.62983], [-58.561771, -34.62995], [-58.561632, -34.630102], [-58.561256, -34.630376], [-58.560845, -34.630722], [-58.559952, -34.631462], [-58.558998, -34.632256], [-58.558556, -34.632626], [-58.558239, -34.632889], [-58.557864, -34.633295], [-58.557408, -34.633718], [-58.557089, -34.633952], [-58.55634, -34.634557], [-58.556149, -34.634714], [-58.555604, -34.635151], [-58.554914, -34.635714], [-58.554066, -34.636366], [-58.553372, -34.636896], [-58.552633, -34.637441], [-58.551756, -34.638124], [-58.551375, -34.638381], [-58.550883, -34.638712], [-58.549645, -34.639624], [-58.549099, -34.640035], [-58.547563, -34.64111], [-58.546538, -34.641912], [-58.546021, -34.64228], [-58.545669, -34.64253], [-58.544826, -34.643149], [-58.544185, -34.643645], [-58.543529, -34.644131], [-58.542496, -34.644866], [-58.541675, -34.64547], [-58.54087, -34.646073], [-58.539987, -34.646722], [-58.539167, -34.647307], [-58.538408, -34.647885], [-58.538187, -34.648042], [-58.537255, -34.648705], [-58.536635, -34.649135], [-58.536256, -34.649398], [-58.535938, -34.649628], [-58.535228, -34.650141], [-58.534976, -34.650316], [-58.534246, -34.650845], [-58.534061, -34.650972], [-58.533082, -34.651642], [-58.532344, -34.652195], [-58.532186, -34.652313], [-58.531418, -34.652858], [-58.531129, -34.653063], [-58.530466, -34.653518], [-58.530311, -34.653636], [-58.529777, -34.654045], [-58.529255, -34.654373], [-58.529333, -34.65319], [-58.529379, -34.652408], [-58.529451, -34.65149], [-58.529488, -34.650763], [-58.529507, -34.650116], [-58.529558, -34.649362], [-58.529608, -34.648367], [-58.529639, -34.647828], [-58.529697, -34.646951], [-58.529707, -34.646352], [-58.529739, -34.645782], [-58.529799, -34.645199], [-58.529865, -34.644054], [-58.529893, -34.643589], [-58.529928, -34.64296], [-58.530003, -34.64171], [-58.530049, -34.640564], [-58.530117, -34.639546], [-58.530148, -34.639344], [-58.530167, -34.638874], [-58.530233, -34.637494], [-58.530331, -34.636457], [-58.530369, -34.635865], [-58.530426, -34.634901], [-58.530438, -34.634785], [-58.530445, -34.634526], [-58.530558, -34.633338], [-58.530496, -34.633041], [-58.530474, -34.632534], [-58.530562, -34.631673], [-58.530627, -34.630764], [-58.530662, -34.629926], [-58.530723, -34.629386], [-58.530789, -34.628464], [-58.530827, -34.628015], [-58.530883, -34.627272], [-58.530923, -34.625664], [-58.531058, -34.624339], [-58.531184, -34.622668], [-58.531726, -34.623088], [-58.53216, -34.623502], [-58.532651, -34.623912], [-58.53333, -34.624485], [-58.534113, -34.623897], [-58.534908, -34.623317], [-58.535545, -34.62284], [-58.536106, -34.622372], [-58.535786, -34.62209], [-58.536409, -34.621556], [-58.536663, -34.620213], [-58.537651, -34.619576], [-58.538494, -34.618952], [-58.539433, -34.618745], [-58.539893, -34.619452], [-58.539481, -34.619817], [-58.540675, -34.620385], [-58.54201, -34.621084], [-58.542377, -34.620404], [-58.54281, -34.619571], [-58.543231, -34.618816], [-58.54367, -34.618024], [-58.544991, -34.618514], [-58.546239, -34.618983], [-58.547118, -34.619314], [-58.547525, -34.619458], [-58.548528, -34.619831], [-58.549383, -34.620227], [-58.550155, -34.620541], [-58.55105, -34.620908], [-58.551476, -34.621099], [-58.551899, -34.621276], [-58.552256, -34.621409], [-58.552865, -34.621659], [-58.552972, -34.621701], [-58.553603, -34.621911], [-58.553772, -34.621969], [-58.554438, -34.622215]]]}}]}